1 26360U 00025A   21085.89397337  .00000047  00000-0  00000-0 0  9990
2 26360  53.7148  97.4198 0059983 174.7774   5.2740  2.00794477152990
1 26360U 00025A   21086.33714624  .00000046  00000-0  00000-0 0  9991
2 26360  53.7151  97.4013 0059990 174.7924 325.6226  2.00794448153004
1 26360U 00025A   21086.88447867  .00000043  00000-0  00000-0 0  9990
2 26360  53.7155  97.3785 0059993 174.8104   1.2639  2.00794419153011
1 26360U 00025A   21087.39663351  .00000040  00000-0  00000-0 0  9992
2 26360  53.7159  97.3571 0059997 174.8259  11.4782  2.00794392153026
1 26360U 00025A   21087.80255591  .00000037  00000-0  00000-0 0  9997
2 26360  53.7163  97.3402 0060004 174.8399 304.8999  2.00794373153039
1 26360U 00025A   21088.88273208  .00000027  00000-0  00000-0 0  9990
2 26360  53.7171  97.2952 0060012 174.8772   5.7071  2.00794318153050
1 26360U 00025A   21089.87041395  .00000018  00000-0  00000-0 0  9990
2 26360  53.7179  97.2541 0060021 174.9122 359.6537  2.00794279153078
1 26360U 00025A   21090.37282117  .00000014  00000-0  00000-0 0  9992
2 26360  53.7183  97.2332 0060025 174.9292   2.8197  2.00794253153085
1 26360U 00025A   21091.21376763  .00000009  00000-0  00000-0 0  9991
2 26360  53.7190  97.1982 0060035 174.9584 250.6990  2.00794222153101
1 26360U 00025A   21091.86317132  .00000007  00000-0  00000-0 0  9995
2 26360  53.7195  97.1711 0060037 174.9811   0.1208  2.00794197153113
1 26360U 00025A   21092.39314624  .00000006  00000-0  00000-0 0  9996
2 26360  53.7200  97.1491 0060040 174.9981  23.2151  2.00794181153124
1 26360U 00025A   21092.75256427  .00000007  00000-0  00000-0 0  9993
2 26360  53.7202  97.1341 0060045 175.0108 283.0206  2.00794171153135
1 26360U 00025A   21093.34926137  .00000008  00000-0  00000-0 0  9992
2 26360  53.7207  97.1093 0060047 175.0286 354.3464  2.00794151153140
1 26360U 00025A   21093.76079969  .00000009  00000-0  00000-0 0  9991
2 26360  53.7210  97.0922 0060051 175.0412 291.8289  2.00794142153151
1 26360U 00025A   21094.24733156  .00000011  00000-0  00000-0 0  9993
2 26360  53.7214  97.0719 0060055 175.0556 283.5213  2.00794131153166
1 26360U 00025A   21095.10472388  .00000016  00000-0  00000-0 0  9991
2 26360  53.7221  97.0362 0060061 175.0781 183.2951  2.00794107153174
1 26360U 00025A   21095.84430222  .00000019  00000-0  00000-0 0  9996
2 26360  53.7226  97.0055 0060067 175.0997 357.9036  2.00794091153191
1 26360U 00025A   21096.22025299  .00000021  00000-0  00000-0 0  9996
2 26360  53.7229  96.9898 0060071 175.1085 269.6641  2.00794084153206
1 26360U 00025A   21096.85285312  .00000023  00000-0  00000-0 0  9991
2 26360  53.7234  96.9635 0060076 175.1257   6.9440  2.00794070153212
1 26360U 00025A   21097.22998552  .00000023  00000-0  00000-0 0  9990
2 26360  53.7237  96.9478 0060081 175.1357 279.5574  2.00794065153228
1 26360U 00025A   21097.84001076  .00000024  00000-0  00000-0 0  9995
2 26360  53.7241  96.9224 0060085 175.1530   0.5181  2.00794049153238
1 26360U 00025A   21098.28693281  .00000023  00000-0  00000-0 0  9998
2 26360  53.7245  96.9038 0060088 175.1634 323.5808  2.00794037153245
1 26360U 00025A   21098.82114861  .00000022  00000-0  00000-0 0  9999
2 26360  53.7249  96.8816 0060092 175.1787 349.7420  2.00794027153256
1 26360U 00025A   21099.29359051  .00000020  00000-0  00000-0 0  9991
2 26360  53.7252  96.8620 0060095 175.1922 331.2496  2.00794017153266
1 26360U 00025A   21099.83208267  .00000017  00000-0  00000-0 0  9999
2 26360  53.7256  96.8396 0060097 175.2084   0.5011  2.00794004153278
1 26360U 00025A   21100.60696654  .00000012  00000-0  00000-0 0  9993
2 26360  53.7262  96.8074 0060097 175.2265 200.6346  2.00793983153290
1 26360U 00025A   21100.82943672  .00000011  00000-0  00000-0 0  9991
2 26360  53.7264  96.7981 0060099 175.2353   1.4460  2.00793978153296
1 26360U 00025A   21101.22253854  .00000009  00000-0  00000-0 0  9999
2 26360  53.7267  96.7818 0060099 175.2435 285.6051  2.00793969153303
1 26360U 00025A   21101.82470412  .00000005  00000-0  00000-0 0  9992
2 26360  53.7271  96.7568 0060100 175.2611   0.8835  2.00793949153315
1 26360U 00025A   21102.38518983  .00000003  00000-0  00000-0 0  9998
2 26360  53.7275  96.7335 0060099 175.2740  46.0369  2.00793932153328
1 26360U 00025A   21104.34402515  .00000001  00000-0  00000-0 0  9997
2 26360  53.7289  96.6521 0060105 175.3136  22.0081  2.00793854153369
1 26360U 00025A   21105.24434486  .00000004  00000-0  00000-0 0  9992
2 26360  53.7296  96.6147 0060113 175.3304 312.8178  2.00793809153386
1 26360U 00025A   21105.81331919  .00000007  00000-0  00000-0 0  9995
2 26360  53.7300  96.5910 0060116 175.3454   4.1050  2.00793776153392
1 26360U 00025A   21106.23953073  .00000010  00000-0  00000-0 0  9997
2 26360  53.7303  96.5733 0060121 175.3538 312.1980  2.00793755153400
1 26360U 00025A   21106.84417897  .00000014  00000-0  00000-0 0  9997
2 26360  53.7308  96.5482 0060122 175.3712  29.2708  2.00793715153412
1 26360U 00025A   21107.38286351  .00000019  00000-0  00000-0 0  9991
2 26360  53.7312  96.5258 0060124 175.3847  58.6634  2.00793684153429
1 26360U 00025A   21107.80004431  .00000022  00000-0  00000-0 0  9999
2 26360  53.7315  96.5084 0060130 175.3965   0.2247  2.00793658153432
1 26360U 00025A   21108.21970944  .00000026  00000-0  00000-0 0  9990
2 26360  53.7318  96.4910 0060134 175.4057 303.5844  2.00793631153443
1 26360U 00025A   21108.86613497  .00000031  00000-0  00000-0 0  9994
2 26360  53.7323  96.4641 0060133 175.4259  50.8543  2.00793587153452
1 26360U 00025A   21109.23104369  .00000034  00000-0  00000-0 0  9992
2 26360  53.7326  96.4489 0060140 175.4347 314.6319  2.00793561153466
1 26360U 00025A   21109.79762590  .00000039  00000-0  00000-0 0  9994
2 26360  53.7330  96.4254 0060140 175.4520   4.1870  2.00793515153477
1 26360U 00025A   21110.24103906  .00000042  00000-0  00000-0 0  9990
2 26360  53.7333  96.4069 0060145 175.4620 324.7128  2.00793483153482
1 26360U 00025A   21110.73741520  .00000045  00000-0  00000-0 0  9997
2 26360  53.7337  96.3863 0060147 175.4742 323.5222  2.00793443153493
1 26360U 00025A   21111.61626228  .00000048  00000-0  00000-0 0  9995
2 26360  53.7343  96.3498 0060154 175.4893 238.8104  2.00793375153513
1 26360U 00025A   21111.78974977  .00000048  00000-0  00000-0 0  9990
2 26360  53.7345  96.3425 0060152 175.4991   4.2116  2.00793361153515
1 26360U 00025A   21112.13839417  .00000049  00000-0  00000-0 0  9990
2 26360  53.7347  96.3280 0060159 175.5023 256.2373  2.00793336153527
1 26360U 00025A   21112.71154969  .00000048  00000-0  00000-0 0  9995
2 26360  53.7351  96.3042 0060164 175.5188 310.5447  2.00793287153538
1 26360U 00025A   21113.09967617  .00000048  00000-0  00000-0 0  9999
2 26360  53.7354  96.2880 0060168 175.5210 231.1122  2.00793257153546
1 26360U 00025A   21114.22586723  .00000042  00000-0  00000-0 0  9994
2 26360  53.7362  96.2411 0060179 175.5507 325.1859  2.00793179153562
1 26360U 00025A   21114.75915282  .00000038  00000-0  00000-0 0  9993
2 26360  53.7366  96.2189 0060184 175.5633 350.6757  2.00793135153577
1 26360U 00025A   21115.52743587  .00000031  00000-0  00000-0 0  9999
2 26360  53.7372  96.1870 0060195 175.5750 186.0418  2.00793081153599
1 26360U 00025A   21115.76789306  .00000029  00000-0  00000-0 0  9991
2 26360  53.7374  96.1770 0060195 175.5867 359.8521  2.00793062153593
1 26360U 00025A   21116.36383431  .00000023  00000-0  00000-0 0  9991
2 26360  53.7378  96.1522 0060199 175.5973  70.6365  2.00793025153609
1 26360U 00025A   21116.83692201  .00000019  00000-0  00000-0 0  9996
2 26360  53.7382  96.1325 0060205 175.6101  52.6098  2.00792991153612
1 26360U 00025A   21117.59094778  .00000012  00000-0  00000-0 0  9998
2 26360  53.7387  96.1011 0060218 175.6278 237.6633  2.00792946153630
1 26360U 00025A   21117.77077678  .00000010  00000-0  00000-0 0  9996
2 26360  53.7389  96.0936 0060215 175.6347   7.6513  2.00792935153631
1 26360U 00025A   21118.86099152  .00000003  00000-0  00000-0 0  9990
2 26360  53.7397  96.0483 0060224 175.6578  75.7238  2.00792874153657
1 26360U 00025A   21119.15882965  .00000002  00000-0  00000-0 0  9994
2 26360  53.7399  96.0359 0060231 175.6682 291.0149  2.00792857153661
1 26360U 00025A   21119.80922000  .00000001  00000-0  00000-0 0  9990
2 26360  53.7404  96.0088 0060231 175.6806  41.1570  2.00792819153676
1 26360U 00025A   21120.34671997  .00000001  00000-0  00000-0 0  9997
2 26360  53.7408  95.9865 0060234 175.6904  69.6956  2.00792794153689
1 26360U 00025A   21120.73971549  .00000001  00000-0  00000-0 0  9996
2 26360  53.7411  95.9701 0060239 175.7010 353.7738  2.00792777153693
